start=new Date('2023-05-05T00:00:00.000Z').valueOf();
sats=[{"PERIOD":"95.591","OBJECT_NAME":"STARLINK-1221","EPHEMERIS_TYPE":"0","ELEMENT_SET_NO":"999","FILE":"3901186","RCS_SIZE":"LARGE","SITE":"AFETR","CLASSIFICATION_TYPE":"U","REF_FRAME":"TEME","BSTAR":"0.00142740000000","MEAN_MOTION":"15.06420014","NORAD_CAT_ID":"45227","MEAN_MOTION_DOT":"0.00021055","SEMIMAJOR_AXIS":"6925.287","DECAY_DATE":null,"MEAN_ANOMALY":"244.3092","EPOCH":"2023-05-04T21:03:38.147040","PERIAPSIS":"546.425","REV_AT_EPOCH":"17859","TIME_SYSTEM":"UTC","GP_ID":"231268181","ECCENTRICITY":"0.00010500","TLE_LINE1":"1 45227U 20012BB  23124.87752485  .00021055  00000-0  14274-2 0  9996","INCLINATION":"53.0542","RA_OF_ASC_NODE":"354.5154","OBJECT_TYPE":"PAYLOAD","MEAN_MOTION_DDOT":"0.0000000000000","COUNTRY_CODE":"US","OBJECT_ID":"2020-012BB","CENTER_NAME":"EARTH","LAUNCH_DATE":"2020-02-17","ARG_OF_PERICENTER":"115.8005","MEAN_ELEMENT_THEORY":"SGP4","APOAPSIS":"547.879","TLE_LINE2":"2 45227  53.0542 354.5154 0001050 115.8005 244.3092 15.06420014178591"},{"ARG_OF_PERICENTER":"105.3876","MEAN_ELEMENT_THEORY":"SGP4","APOAPSIS":"547.943","TLE_LINE2":"2 45228  53.0541 354.5022 0001133 105.3876 254.7238 15.06418055178563","EPOCH":"2023-05-04T21:08:56.881824","PERIAPSIS":"546.374","TIME_SYSTEM":"UTC","REV_AT_EPOCH":"17856","GP_ID":"231268932","INCLINATION":"53.0541","TLE_LINE1":"1 45228U 20012BC  23124.88121391  .00021658  00000-0  14677-2 0  9990","ECCENTRICITY":"0.00011330","RA_OF_ASC_NODE":"354.5022","OBJECT_TYPE":"PAYLOAD","MEAN_MOTION_DDOT":"0.0000000000000","COUNTRY_CODE":"US","OBJECT_ID":"2020-012BC","CENTER_NAME":"EARTH","LAUNCH_DATE":"2020-02-17","REF_FRAME":"TEME","BSTAR":"0.00146770000000","MEAN_MOTION":"15.06418055","NORAD_CAT_ID":"45228","MEAN_MOTION_DOT":"0.00021658","SEMIMAJOR_AXIS":"6925.293","DECAY_DATE":null,"MEAN_ANOMALY":"254.7238","PERIOD":"95.591","OBJECT_NAME":"STARLINK-1222","EPHEMERIS_TYPE":"0","ELEMENT_SET_NO":"999","FILE":"3901186","RCS_SIZE":"LARGE","CLASSIFICATION_TYPE":"U","SITE":"AFETR"},{"SITE":"AFETR","CLASSIFICATION_TYPE":"U","PERIOD":"95.590","OBJECT_NAME":"STARLINK-1226","EPHEMERIS_TYPE":"0","ELEMENT_SET_NO":"999","FILE":"3901186","RCS_SIZE":"LARGE","MEAN_MOTION_DOT":"0.00020504","SEMIMAJOR_AXIS":"6925.249","DECAY_DATE":null,"MEAN_ANOMALY":"263.5959","REF_FRAME":"TEME","BSTAR":"0.00139020000000","MEAN_MOTION":"15.06432388","NORAD_CAT_ID":"45229","COUNTRY_CODE":"US","OBJECT_ID":"2020-012BD","CENTER_NAME":"EARTH","LAUNCH_DATE":"2020-02-17","PERIAPSIS":"546.163","EPOCH":"2023-05-04T21:51:23.933088","TIME_SYSTEM":"UTC","REV_AT_EPOCH":"17857","GP_ID":"231269183","TLE_LINE1":"1 45229U 20012BD  23124.91069367  .00020504  00000-0  13902-2 0  9998","INCLINATION":"53.0544","ECCENTRICITY":"0.00013730","RA_OF_ASC_NODE":"354.3674","OBJECT_TYPE":"PAYLOAD","MEAN_MOTION_DDOT":"0.0000000000000","APOAPSIS":"548.065","TLE_LINE2":"2 45229  53.0544 354.3674 0001373  96.5186 263.5959 15.06432388178573","ARG_OF_PERICENTER":"96.5186","MEAN_ELEMENT_THEORY":"SGP4"},{"EPOCH":"2023-05-04T21:46:02.867232","PERIAPSIS":"546.223","REV_AT_EPOCH":"17869","TIME_SYSTEM":"UTC","GP_ID":"231269434","TLE_LINE1":"1 45230U 20012BE  23124.90697763  .00024434  00000-0  16508-2 0  9997","INCLINATION":"53.0539","ECCENTRICITY":"0.00011550","RA_OF_ASC_NODE":"354.3826","OBJECT_TYPE":"PAYLOAD","MEAN_MOTION_DDOT":"0.0000000000000","COUNTRY_CODE":"US","OBJECT_ID":"2020-012BE","CENTER_NAME":"EARTH","LAUNCH_DATE":"2020-02-17","ARG_OF_PERICENTER":"81.3389","MEAN_ELEMENT_THEORY":"SGP4","APOAPSIS":"547.822","TLE_LINE2":"2 45230  53.0539 354.3826 0001155  81.3389 278.7731 15.06462360178695","PERIOD":"95.588","OBJECT_NAME":"STARLINK-1227","EPHEMERIS_TYPE":"0","ELEMENT_SET_NO":"999","FILE":"3901186","RCS_SIZE":"LARGE","CLASSIFICATION_TYPE":"U","SITE":"AFETR","REF_FRAME":"TEME","BSTAR":"0.00165080000000","MEAN_MOTION":"15.06462360","NORAD_CAT_ID":"45230","MEAN_MOTION_DOT":"0.00024434","SEMIMAJOR_AXIS":"6925.157","DECAY_DATE":null,"MEAN_ANOMALY":"278.7731"},{"DECAY_DATE":null,"MEAN_ANOMALY":"257.5014","MEAN_MOTION_DOT":"0.00018424","SEMIMAJOR_AXIS":"6925.266","REF_FRAME":"TEME","BSTAR":"0.00125160000000","MEAN_MOTION":"15.06426958","NORAD_CAT_ID":"45232","SITE":"AFETR","CLASSIFICATION_TYPE":"U","FILE":"3901186","RCS_SIZE":"LARGE","PERIOD":"95.590","OBJECT_NAME":"STARLINK-1235","EPHEMERIS_TYPE":"0","ELEMENT_SET_NO":"999","TLE_LINE2":"2 45232  53.0551 354.3265 0001287 102.6119 257.5014 15.06426958178683","APOAPSIS":"548.022","MEAN_ELEMENT_THEORY":"SGP4","ARG_OF_PERICENTER":"102.6119","OBJECT_ID":"2020-012BG","CENTER_NAME":"EARTH","LAUNCH_DATE":"2020-02-17","COUNTRY_CODE":"US","RA_OF_ASC_NODE":"354.3265","OBJECT_TYPE":"PAYLOAD","MEAN_MOTION_DDOT":"0.0000000000000","PERIAPSIS":"546.240","EPOCH":"2023-05-04T22:00:39.377952","REV_AT_EPOCH":"17868","TIME_SYSTEM":"UTC","GP_ID":"231268680","TLE_LINE1":"1 45232U 20012BG  23124.91712243  .00018424  00000-0  12516-2 0  9998","INCLINATION":"53.0551","ECCENTRICITY":"0.00012870"},{"MEAN_ELEMENT_THEORY":"SGP4","ARG_OF_PERICENTER":"80.6598","TLE_LINE2":"2 45233  53.0547  14.4293 0001169  80.6598 279.4524 15.06431358178385","APOAPSIS":"547.927","RA_OF_ASC_NODE":"14.4293","OBJECT_TYPE":"PAYLOAD","MEAN_MOTION_DDOT":"0.0000000000000","PERIAPSIS":"546.308","EPOCH":"2023-05-04T21:32:49.412832","REV_AT_EPOCH":"17838","TIME_SYSTEM":"UTC","GP_ID":"231268434","TLE_LINE1":"1 45233U 20012BH  23124.89779413  .00023717  00000-0  16044-2 0  9999","ECCENTRICITY":"0.00011690","INCLINATION":"53.0547","OBJECT_ID":"2020-012BH","CENTER_NAME":"EARTH","LAUNCH_DATE":"2020-02-17","COUNTRY_CODE":"US","REF_FRAME":"TEME","BSTAR":"0.00160440000000","MEAN_MOTION":"15.06431358","NORAD_CAT_ID":"45233","DECAY_DATE":null,"MEAN_ANOMALY":"279.4524","MEAN_MOTION_DOT":"0.00023717","SEMIMAJOR_AXIS":"6925.252","FILE":"3901186","RCS_SIZE":"LARGE","PERIOD":"95.590","OBJECT_NAME":"STARLINK-1238","EPHEMERIS_TYPE":"0","ELEMENT_SET_NO":"999","CLASSIFICATION_TYPE":"U","SITE":"AFETR"},{"EPHEMERIS_TYPE":"0","ELEMENT_SET_NO":"999","PERIOD":"95.592","OBJECT_NAME":"STARLINK-1243","RCS_SIZE":"LARGE","FILE":"3901047","SITE":"AFETR","CLASSIFICATION_TYPE":"U","MEAN_MOTION":"15.06398429","NORAD_CAT_ID":"45234","REF_FRAME":"TEME","BSTAR":"0.00106670000000","SEMIMAJOR_AXIS":"6925.353","MEAN_MOTION_DOT":"0.00015642","DECAY_DATE":null,"MEAN_ANOMALY":"249.5529","GP_ID":"231246476","ECCENTRICITY":"0.00014060","TLE_LINE1":"1 45234U 20012BJ  23124.47207191  .00015642  00000-0  10667-2 0  9996","INCLINATION":"53.0554","PERIAPSIS":"546.245","EPOCH":"2023-05-04T11:19:47.013024","REV_AT_EPOCH":"17714","TIME_SYSTEM":"UTC","MEAN_MOTION_DDOT":"0.0000000000000","RA_OF_ASC_NODE":"36.3333","OBJECT_TYPE":"PAYLOAD","COUNTRY_CODE":"US","LAUNCH_DATE":"2020-02-17","OBJECT_ID":"2020-012BJ","CENTER_NAME":"EARTH","ARG_OF_PERICENTER":"110.5611","MEAN_ELEMENT_THEORY":"SGP4","APOAPSIS":"548.192","TLE_LINE2":"2 45234  53.0554  36.3333 0001406 110.5611 249.5529 15.06398429177142"},{"MEAN_MOTION_DOT":"0.00023821","SEMIMAJOR_AXIS":"6925.305","MEAN_ANOMALY":"281.1873","DECAY_DATE":null,"BSTAR":"0.00161210000000","REF_FRAME":"TEME","NORAD_CAT_ID":"45235","MEAN_MOTION":"15.06414108","SITE":"AFETR","CLASSIFICATION_TYPE":"U","OBJECT_NAME":"STARLINK-1246","PERIOD":"95.591","ELEMENT_SET_NO":"999","EPHEMERIS_TYPE":"0","FILE":"3901186","RCS_SIZE":"LARGE","APOAPSIS":"547.906","TLE_LINE2":"2 45235  53.0551  34.9152 0001062  78.9235 281.1873 15.06414108178126","ARG_OF_PERICENTER":"78.9235","MEAN_ELEMENT_THEORY":"SGP4","COUNTRY_CODE":"US","CENTER_NAME":"EARTH","OBJECT_ID":"2020-012BK","LAUNCH_DATE":"2020-02-17","TIME_SYSTEM":"UTC","REV_AT_EPOCH":"17812","EPOCH":"2023-05-04T18:56:14.341632","PERIAPSIS":"546.435","INCLINATION":"53.0551","TLE_LINE1":"1 45235U 20012BK  23124.78905488  .00023821  00000-0  16121-2 0  9994","ECCENTRICITY":"0.00010620","GP_ID":"231269934","OBJECT_TYPE":"PAYLOAD","RA_OF_ASC_NODE":"34.9152","MEAN_MOTION_DDOT":"0.0000000000000"},{"REV_AT_EPOCH":"17867","TIME_SYSTEM":"UTC","PERIAPSIS":"546.433","EPOCH":"2023-05-04T21:40:47.823456","INCLINATION":"53.0545","TLE_LINE1":"1 45236U 20012BL  23124.90333129  .00023309  00000-0  15774-2 0  9990","ECCENTRICITY":"0.00010070","GP_ID":"231268182","OBJECT_TYPE":"PAYLOAD","RA_OF_ASC_NODE":"354.4013","MEAN_MOTION_DDOT":"0.0000000000000","COUNTRY_CODE":"US","CENTER_NAME":"EARTH","OBJECT_ID":"2020-012BL","LAUNCH_DATE":"2020-02-17","ARG_OF_PERICENTER":"94.1952","MEAN_ELEMENT_THEORY":"SGP4","APOAPSIS":"547.828","TLE_LINE2":"2 45236  53.0545 354.4013 0001007  94.1952 265.9152 15.06427219178678","OBJECT_NAME":"STARLINK-1247","PERIOD":"95.590","ELEMENT_SET_NO":"999","EPHEMERIS_TYPE":"0","FILE":"3901186","RCS_SIZE":"LARGE","SITE":"AFETR","CLASSIFICATION_TYPE":"U","BSTAR":"0.00157740000000","REF_FRAME":"TEME","NORAD_CAT_ID":"45236","MEAN_MOTION":"15.06427219","MEAN_MOTION_DOT":"0.00023309","SEMIMAJOR_AXIS":"6925.265","MEAN_ANOMALY":"265.9152","DECAY_DATE":null},{"CLASSIFICATION_TYPE":"U","SITE":"AFETR","RCS_SIZE":"LARGE","FILE":"3901186","ELEMENT_SET_NO":"999","EPHEMERIS_TYPE":"0","OBJECT_NAME":"STARLINK-1270","PERIOD":"95.590","MEAN_ANOMALY":"279.5956","DECAY_DATE":null,"SEMIMAJOR_AXIS":"6925.258","MEAN_MOTION_DOT":"0.00018934","NORAD_CAT_ID":"45237","MEAN_MOTION":"15.06429468","BSTAR":"0.00128560000000","REF_FRAME":"TEME","LAUNCH_DATE":"2020-02-17","CENTER_NAME":"EARTH","OBJECT_ID":"2020-012BM","COUNTRY_CODE":"US","MEAN_MOTION_DDOT":"0.0000000000000","OBJECT_TYPE":"PAYLOAD","RA_OF_ASC_NODE":"354.3074","TLE_LINE1":"1 45237U 20012BM  23124.92543727  .00018934  00000-0  12856-2 0  9996","INCLINATION":"53.0555","ECCENTRICITY":"0.00013520","GP_ID":"231268933","REV_AT_EPOCH":"17868","TIME_SYSTEM":"UTC","PERIAPSIS":"546.187","EPOCH":"2023-05-04T22:12:37.780128","TLE_LINE2":"2 45237  53.0555 354.3074 0001352  80.5186 279.5956 15.06429468178689","APOAPSIS":"548.060","MEAN_ELEMENT_THEORY":"SGP4","ARG_OF_PERICENTER":"80.5186"}];
